{
    "links": {
        "self": "http://www.neowsapp.com/rest/v1/neo/3710164?api_key=iIulBulltgU6a56xZRHN4H3l9WmuAYTsLGpBGhQ2"
    },
    "id": "3710164",
    "neo_reference_id": "3710164",
    "name": "(2015 CZ12)",
    "designation": "2015 CZ12",
    "nasa_jpl_url": "http://ssd.jpl.nasa.gov/sbdb.cgi?sstr=3710164",
    "absolute_magnitude_h": 25.4,
    "estimated_diameter": {
        "kilometers": {
            "estimated_diameter_min": 0.022108281,
            "estimated_diameter_max": 0.0494356193
        },
        "meters": {
            "estimated_diameter_min": 22.1082810359,
            "estimated_diameter_max": 49.435619262
        },
        "miles": {
            "estimated_diameter_min": 0.0137374447,
            "estimated_diameter_max": 0.0307178602
        },
        "feet": {
            "estimated_diameter_min": 72.5337327539,
            "estimated_diameter_max": 162.1903570994
        }
    },
    "is_potentially_hazardous_asteroid": false,
    "close_approach_data": [
        {
            "close_approach_date": "2015-02-04",
            "close_approach_date_full": "2015-Feb-04 06:18",
            "epoch_date_close_approach": 1423030680000,
            "relative_velocity": {
                "kilometers_per_second": "8.3969481509",
                "kilometers_per_hour": "30229.0133431052",
                "miles_per_hour": "18783.1333186644"
            },
            "miss_distance": {
                "astronomical": "0.0343116054",
                "lunar": "13.3472145006",
                "kilometers": "5132943.084120498",
                "miles": "3189462.9351109524"
            },
            "orbiting_body": "Earth"
        }
    ],
    "orbital_data": {
        "orbit_id": "11",
        "orbit_determination_date": "2017-04-06 08:35:44",
        "first_observation_date": "2015-02-12",
        "last_observation_date": "2015-02-24",
        "data_arc_in_days": 12,
        "observations_used": 57,
        "orbit_uncertainty": "8",
        "minimum_orbit_intersection": ".0283256",
        "jupiter_tisserand_invariant": "4.150",
        "epoch_osculation": "2457068.5",
        "eccentricity": ".4263167470679453",
        "semi_major_axis": "1.660584852248322",
        "inclination": "5.66156223470703",
        "ascending_node_longitude": "325.8884466355375",
        "orbital_period": "781.6098699011665",
        "perihelion_distance": ".9526497198075129",
        "perihelion_argument": "133.0213989928174",
        "aphelion_distance": "2.368519984689131",
        "perihelion_time": "2457029.133404869949",
        "mean_anomaly": "18.13177493345931",
        "mean_motion": ".4605878378244143",
        "equinox": "J2000",
        "orbit_class": {
            "orbit_class_type": "APO",
            "orbit_class_description": "Near-Earth asteroid orbits which cross the Earth’s orbit similar to that of 1862 Apollo",
            "orbit_class_range": "a (semi-major axis) > 1.0 AU; q (perihelion) < 1.017 AU"
        }
    },
    "is_sentry_object": false
}